1 90000           19337.16666667 -.00000313  00000-0 -63128-3 0 00001
2 90000 073.9375 139.6567 0009533 270.9591 099.5135 13.33852378000011
1 90001           19337.16666667 -.00000203  00000-0 -41022-3 0 00009
2 90001 073.9375 139.6567 0009531 270.9266 106.7460 13.33852278000010
1 90002           19337.16666667 -.00000073  00000-0 -14676-3 0 00000
2 90002 073.9375 139.6567 0009530 270.8925 113.9802 13.33852154000014
1 90003           19337.16666667  .00000049  00000-0  98125-4 0 00004
2 90003 073.9375 139.6567 0009530 270.8578 121.2150 13.33852033000013
1 90004           19337.16666667  .00000170  00000-0  34338-3 0 00005
2 90004 073.9375 139.6567 0009530 270.8233 128.4495 13.33851907000012
1 90005           19337.16666667  .00000284  00000-0  57464-3 0 00007
2 90005 073.9375 139.6567 0009532 270.7901 135.6829 13.33851785000011
1 90006           19337.16666667  .00000385  00000-0  77793-3 0 00007
2 90006 073.9375 139.6567 0009534 270.7588 142.9143 13.33851672000010
1 90007           19337.16666667  .00000466  00000-0  94056-3 0 00009
2 90007 073.9375 139.6567 0009537 270.7303 150.1429 13.33851577000011
1 90008           19337.16666667  .00000521  00000-0  10520-2 0 00005
2 90008 073.9375 139.6567 0009540 270.7050 157.3682 13.33851504000015
1 90009           19337.16666667  .00000547  00000-0  11053-2 0 00006
2 90009 073.9375 139.6567 0009544 270.6834 164.5898 13.33851457000015
1 90010           19337.16666667  .00000532  00000-0  10754-2 0 00009
2 90010 073.9375 139.6567 0009548 270.6658 171.8075 13.33851455000011
1 90011           19337.16666667  .00000498  00000-0  10067-2 0 00008
2 90011 073.9375 139.6567 0009553 270.6518 179.0215 13.33851470000016
1 90012           19337.16666667  .00000438  00000-0  88538-3 0 00002
2 90012 073.9375 139.6567 0009558 270.6414 186.2318 13.33851512000018
1 90013           19337.16666667  .00000366  00000-0  73935-3 0 00008
2 90013 073.9375 139.6567 0009562 270.6345 193.4388 13.33851567000014
1 90014           19337.16666667  .00000265  00000-0  53529-3 0 00004
2 90014 073.9375 139.6567 0009567 270.6308 200.6424 13.33851656000010
1 90015           19337.16666667  .00000153  00000-0  30954-3 0 00008
2 90015 073.9375 139.6567 0009571 270.6302 207.8430 13.33851759000010
1 90016           19337.16666667  .00000039  00000-0  77800-4 0 00004
2 90016 073.9375 139.6567 0009576 270.6325 215.0406 13.33851867000015
1 90017           19337.16666667 -.00000071  00000-0 -14380-3 0 00006
2 90017 073.9375 139.6567 0009581 270.6376 222.2354 13.33851974000019
1 90018           19337.16666667 -.00000168  00000-0 -34033-3 0 00001
2 90018 073.9375 139.6567 0009585 270.6455 229.4274 13.33852072000012
1 90019           19337.16666667 -.00000247  00000-0 -49894-3 0 00001
2 90019 073.9375 139.6567 0009589 270.6563 236.6166 13.33852154000018
1 90020           19337.16666667 -.00000302  00000-0 -60965-3 0 00007
2 90020 073.9375 139.6567 0009593 270.6701 243.8027 13.33852216000014
1 90021           19337.16666667 -.00000347  00000-0 -70008-3 0 00006
2 90021 073.9375 139.6567 0009597 270.6870 250.9857 13.33852267000012
1 90022           19337.16666667 -.00000356  00000-0 -71876-3 0 00001
2 90022 073.9375 139.6567 0009601 270.7070 258.1657 13.33852284000019
1 90023           19337.16666667 -.00000339  00000-0 -68394-3 0 00004
2 90023 073.9375 139.6567 0009604 270.7301 265.3427 13.33852276000016
1 90024           19337.16666667 -.00000297  00000-0 -59895-3 0 00004
2 90024 073.9375 139.6567 0009607 270.7559 272.5169 13.33852242000011
1 90025           19337.16666667 -.00000233  00000-0 -47038-3 0 00001
2 90025 073.9375 139.6567 0009609 270.7841 279.6887 13.33852185000019
1 90026           19337.16666667 -.00000152  00000-0 -30761-3 0 00007
2 90026 073.9375 139.6567 0009611 270.8143 286.8586 13.33852109000011
1 90027           19337.16666667 -.00000051  00000-0 -10358-3 0 00006
2 90027 073.9375 139.6567 0009612 270.8457 294.0272 13.33852013000018
1 90028           19337.16666667  .00000040  00000-0  80211-4 0 00009
2 90028 073.9375 139.6567 0009612 270.8777 301.1953 13.33851921000017
1 90029           19337.16666667  .00000131  00000-0  26506-3 0 00007
2 90029 073.9375 139.6567 0009611 270.9095 308.3636 13.33851827000013
1 90030           19337.16666667  .00000216  00000-0  43724-3 0 00004
2 90030 073.9375 139.6567 0009610 270.9402 315.5329 13.33851737000015
1 90031           19337.16666667  .00000289  00000-0  58367-3 0 00004
2 90031 073.9375 139.6567 0009608 270.9694 322.7038 13.33851658000015
1 90032           19337.16666667  .00000343  00000-0  69273-3 0 00004
2 90032 073.9375 139.6567 0009605 270.9963 329.8769 13.33851596000012
1 90033           19337.16666667  .00000374  00000-0  75490-3 0 00007
2 90033 073.9375 139.6567 0009602 271.0206 337.0527 13.33851556000011
1 90034           19337.16666667  .00000378  00000-0  76368-3 0 00007
2 90034 073.9375 139.6567 0009599 271.0418 344.2314 13.33851542000011
1 90035           19337.16666667  .00000343  00000-0  69292-3 0 00008
2 90035 073.9375 139.6567 0009595 271.0600 351.4133 13.33851571000012
1 90036           19337.16666667  .00000292  00000-0  59067-3 0 00001
2 90036 073.9375 139.6567 0009591 271.0750 358.5982 13.33851616000015
1 90037           19337.16666667  .00000219  00000-0  44241-3 0 00009
2 90037 073.9375 139.6567 0009587 271.0870 005.7862 13.33851685000018
1 90038           19337.16666667  .00000137  00000-0  27656-3 0 00000
2 90038 073.9375 139.6567 0009582 271.0960 012.9771 13.33851764000011
1 90039           19337.16666667  .00000029  00000-0  59394-4 0 00006
2 90039 073.9375 139.6567 0009578 271.1022 020.1709 13.33851874000011
1 90040           19337.16666667 -.00000085  00000-0 -17168-3 0 00004
2 90040 073.9375 139.6567 0009573 271.1055 027.3675 13.33851994000018
1 90041           19337.16666667 -.00000199  00000-0 -40105-3 0 00008
2 90041 073.9375 139.6567 0009569 271.1058 034.5670 13.33852117000010
1 90042           19337.16666667 -.00000303  00000-0 -61283-3 0 00006
2 90042 073.9375 139.6567 0009564 271.1033 041.7695 13.33852234000016
1 90043           19337.16666667 -.00000392  00000-0 -79227-3 0 00002
2 90043 073.9375 139.6567 0009559 271.0977 048.9750 13.33852338000013
1 90044           19337.16666667 -.00000459  00000-0 -92674-3 0 00008
2 90044 073.9375 139.6567 0009555 271.0887 056.1839 13.33852422000013
1 90045           19337.16666667 -.00000498  00000-0 -10068-2 0 00008
2 90045 073.9375 139.6567 0009550 271.0762 063.3963 13.33852481000014
1 90046           19337.16666667 -.00000525  00000-0 -10597-2 0 00007
2 90046 073.9375 139.6567 0009546 271.0600 070.6125 13.33852525000011
1 90047           19337.16666667 -.00000513  00000-0 -10355-2 0 00007
2 90047 073.9375 139.6567 0009542 271.0400 077.8325 13.33852532000015
1 90048           19337.16666667 -.00000472  00000-0 -95277-3 0 00009
2 90048 073.9375 139.6567 0009538 271.0163 085.0562 13.33852509000015
1 90049           19337.16666667 -.00000404  00000-0 -81556-3 0 00000
2 90049 073.9375 139.6567 0009535 270.9892 092.2833 13.33852457000013
